start=new Date('2022-08-26T00:00:00.000Z').valueOf();
sats=[{"TIME_SYSTEM":"UTC","CENTER_NAME":"EARTH","ELEMENT_SET_NO":"999","COUNTRY_CODE":"US","OBJECT_TYPE":"PAYLOAD","SEMIMAJOR_AXIS":"6917.886","ARG_OF_PERICENTER":"56.5542","EPOCH":"2022-08-25T13:11:04.943328","MEAN_MOTION":"15.08838021","GP_ID":"211007936","FILE":"3547674","REF_FRAME":"TEME","RA_OF_ASC_NODE":"259.7780","INCLINATION":"53.2154","TLE_LINE1":"1 49445U 21104AP  22237.54936277 -.00000968  00000-0 -42720-4 0  9997","REV_AT_EPOCH":"4370","TLE_LINE2":"2 49445  53.2154 259.7780 0001636  56.5542 303.5606 15.08838021 43702","CLASSIFICATION_TYPE":"U","MEAN_ANOMALY":"303.5606","OBJECT_ID":"2021-104AP","MEAN_MOTION_DOT":"-0.00000968","BSTAR":"-0.00004272000000","EPHEMERIS_TYPE":"0","MEAN_MOTION_DDOT":"0.0000000000000","RCS_SIZE":"LARGE","ECCENTRICITY":"0.00016360","APOAPSIS":"540.883","DECAY_DATE":null,"LAUNCH_DATE":"2021-11-13","SITE":"AFETR","PERIAPSIS":"538.620","PERIOD":"95.438","NORAD_CAT_ID":"49445","OBJECT_NAME":"STARLINK-3122","MEAN_ELEMENT_THEORY":"SGP4"},{"COUNTRY_CODE":"US","OBJECT_TYPE":"PAYLOAD","ELEMENT_SET_NO":"999","CENTER_NAME":"EARTH","TIME_SYSTEM":"UTC","MEAN_MOTION":"15.08835361","EPOCH":"2022-08-25T17:32:04.729920","ARG_OF_PERICENTER":"70.4136","SEMIMAJOR_AXIS":"6917.895","TLE_LINE1":"1 49446U 21104AQ  22237.73061030 -.00000823  00000-0 -33622-4 0  9996","INCLINATION":"53.2155","RA_OF_ASC_NODE":"248.9598","REF_FRAME":"TEME","FILE":"3547605","GP_ID":"210982983","TLE_LINE2":"2 49446  53.2155 248.9598 0001498  70.4136 289.7018 15.08835361 44944","REV_AT_EPOCH":"4494","OBJECT_ID":"2021-104AQ","MEAN_ANOMALY":"289.7018","CLASSIFICATION_TYPE":"U","RCS_SIZE":"LARGE","MEAN_MOTION_DDOT":"0.0000000000000","EPHEMERIS_TYPE":"0","BSTAR":"-0.00003362200000","MEAN_MOTION_DOT":"-0.00000823","SITE":"AFETR","PERIAPSIS":"538.723","LAUNCH_DATE":"2021-11-13","DECAY_DATE":null,"APOAPSIS":"540.796","ECCENTRICITY":"0.00014980","MEAN_ELEMENT_THEORY":"SGP4","OBJECT_NAME":"STARLINK-3099","NORAD_CAT_ID":"49446","PERIOD":"95.438"},{"OBJECT_NAME":"STARLINK-3115","MEAN_ELEMENT_THEORY":"SGP4","PERIOD":"95.437","NORAD_CAT_ID":"49447","LAUNCH_DATE":"2021-11-13","SITE":"AFETR","PERIAPSIS":"538.562","DECAY_DATE":null,"APOAPSIS":"540.895","ECCENTRICITY":"0.00016860","MEAN_MOTION_DDOT":"0.0000000000000","RCS_SIZE":"LARGE","BSTAR":"-0.00002445800000","MEAN_MOTION_DOT":"-0.00000677","EPHEMERIS_TYPE":"0","OBJECT_ID":"2021-104AR","MEAN_ANOMALY":"302.0348","CLASSIFICATION_TYPE":"U","REV_AT_EPOCH":"4367","TLE_LINE2":"2 49447  53.2149 260.7025 0001686  58.0808 302.0348 15.08845545 43671","REF_FRAME":"TEME","TLE_LINE1":"1 49447U 21104AR  22237.34328461 -.00000677  00000-0 -24458-4 0  9992","INCLINATION":"53.2149","RA_OF_ASC_NODE":"260.7025","FILE":"3547226","GP_ID":"210973939","ARG_OF_PERICENTER":"58.0808","EPOCH":"2022-08-25T08:14:19.790304","MEAN_MOTION":"15.08845545","SEMIMAJOR_AXIS":"6917.863","ELEMENT_SET_NO":"999","OBJECT_TYPE":"PAYLOAD","COUNTRY_CODE":"US","TIME_SYSTEM":"UTC","CENTER_NAME":"EARTH"},{"SEMIMAJOR_AXIS":"6917.860","MEAN_MOTION":"15.08846657","ARG_OF_PERICENTER":"51.9305","EPOCH":"2022-08-25T18:02:31.922304","CENTER_NAME":"EARTH","TIME_SYSTEM":"UTC","COUNTRY_CODE":"US","OBJECT_TYPE":"PAYLOAD","ELEMENT_SET_NO":"999","TLE_LINE2":"2 49448  53.2156 258.8612 0001971  51.9305 308.1865 15.08846657 43734","REV_AT_EPOCH":"4373","GP_ID":"211007691","FILE":"3547674","RA_OF_ASC_NODE":"258.8612","INCLINATION":"53.2156","TLE_LINE1":"1 49448U 21104AS  22237.75175836  .00000289  00000-0  36289-4 0  9996","REF_FRAME":"TEME","EPHEMERIS_TYPE":"0","MEAN_MOTION_DOT":"0.00000289","BSTAR":"0.00003628900000","RCS_SIZE":"LARGE","MEAN_MOTION_DDOT":"0.0000000000000","CLASSIFICATION_TYPE":"U","MEAN_ANOMALY":"308.1865","OBJECT_ID":"2021-104AS","NORAD_CAT_ID":"49448","PERIOD":"95.437","MEAN_ELEMENT_THEORY":"SGP4","OBJECT_NAME":"STARLINK-3097","APOAPSIS":"541.089","ECCENTRICITY":"0.00019710","DECAY_DATE":null,"SITE":"AFETR","PERIAPSIS":"538.362","LAUNCH_DATE":"2021-11-13"},{"CLASSIFICATION_TYPE":"U","MEAN_ANOMALY":"304.2274","OBJECT_ID":"2021-104AT","EPHEMERIS_TYPE":"0","BSTAR":"-0.00003640200000","MEAN_MOTION_DOT":"-0.00000867","RCS_SIZE":"LARGE","MEAN_MOTION_DDOT":"0.0000000000000","ECCENTRICITY":"0.00016780","APOAPSIS":"540.917","DECAY_DATE":null,"PERIAPSIS":"538.595","SITE":"AFETR","LAUNCH_DATE":"2021-11-13","NORAD_CAT_ID":"49449","PERIOD":"95.438","MEAN_ELEMENT_THEORY":"SGP4","OBJECT_NAME":"STARLINK-3137","CENTER_NAME":"EARTH","TIME_SYSTEM":"UTC","OBJECT_TYPE":"PAYLOAD","COUNTRY_CODE":"US","ELEMENT_SET_NO":"999","SEMIMAJOR_AXIS":"6917.891","MEAN_MOTION":"15.08836557","ARG_OF_PERICENTER":"55.8877","EPOCH":"2022-08-25T08:09:01.788192","GP_ID":"210972438","FILE":"3547226","INCLINATION":"53.2152","RA_OF_ASC_NODE":"260.7171","TLE_LINE1":"1 49449U 21104AT  22237.33960403 -.00000867  00000-0 -36402-4 0  9994","REF_FRAME":"TEME","TLE_LINE2":"2 49449  53.2152 260.7171 0001678  55.8877 304.2274 15.08836557 43676","REV_AT_EPOCH":"4367"},{"MEAN_ELEMENT_THEORY":"SGP4","OBJECT_NAME":"STARLINK-3127","NORAD_CAT_ID":"49450","PERIOD":"95.438","PERIAPSIS":"538.460","SITE":"AFETR","LAUNCH_DATE":"2021-11-13","ECCENTRICITY":"0.00018670","APOAPSIS":"541.043","DECAY_DATE":null,"RCS_SIZE":"LARGE","MEAN_MOTION_DDOT":"0.0000000000000","EPHEMERIS_TYPE":"0","BSTAR":"0.00009090100000","MEAN_MOTION_DOT":"0.00001159","MEAN_ANOMALY":"309.0402","OBJECT_ID":"2021-104AU","CLASSIFICATION_TYPE":"U","TLE_LINE2":"2 49450  53.2149 260.6748 0001867  51.0757 309.0402 15.08838102 43931","REV_AT_EPOCH":"4393","INCLINATION":"53.2149","RA_OF_ASC_NODE":"260.6748","TLE_LINE1":"1 49450U 21104AU  22237.34696830  .00001159  00000-0  90901-4 0  9994","REF_FRAME":"TEME","GP_ID":"210973689","FILE":"3547226","MEAN_MOTION":"15.08838102","ARG_OF_PERICENTER":"51.0757","EPOCH":"2022-08-25T08:19:38.061120","SEMIMAJOR_AXIS":"6917.886","COUNTRY_CODE":"US","OBJECT_TYPE":"PAYLOAD","ELEMENT_SET_NO":"999","CENTER_NAME":"EARTH","TIME_SYSTEM":"UTC"},{"EPHEMERIS_TYPE":"0","BSTAR":"-0.00007121300000","MEAN_MOTION_DOT":"-0.00001421","RCS_SIZE":"LARGE","MEAN_MOTION_DDOT":"0.0000000000000","CLASSIFICATION_TYPE":"U","MEAN_ANOMALY":"305.3784","OBJECT_ID":"2021-104AV","NORAD_CAT_ID":"49451","PERIOD":"95.438","MEAN_ELEMENT_THEORY":"SGP4","OBJECT_NAME":"STARLINK-3125","APOAPSIS":"541.028","ECCENTRICITY":"0.00018150","DECAY_DATE":null,"PERIAPSIS":"538.516","SITE":"AFETR","LAUNCH_DATE":"2021-11-13","SEMIMAJOR_AXIS":"6917.907","MEAN_MOTION":"15.08831271","ARG_OF_PERICENTER":"54.7378","EPOCH":"2022-08-25T19:11:26.808576","CENTER_NAME":"EARTH","TIME_SYSTEM":"UTC","OBJECT_TYPE":"PAYLOAD","COUNTRY_CODE":"US","ELEMENT_SET_NO":"999","TLE_LINE2":"2 49451  53.2170 258.6488 0001815  54.7378 305.3784 15.08831271 43747","REV_AT_EPOCH":"4374","GP_ID":"211007444","FILE":"3547674","INCLINATION":"53.2170","RA_OF_ASC_NODE":"258.6488","TLE_LINE1":"1 49451U 21104AV  22237.79961584 -.00001421  00000-0 -71213-4 0  9994","REF_FRAME":"TEME"},{"REV_AT_EPOCH":"4374","TLE_LINE2":"2 49452  53.2171 258.7029 0001698  56.0755 304.0399 15.08833447 43749","REF_FRAME":"TEME","INCLINATION":"53.2171","RA_OF_ASC_NODE":"258.7029","TLE_LINE1":"1 49452U 21104AW  22237.78584677 -.00001203  00000-0 -57529-4 0  9990","GP_ID":"211007191","FILE":"3547674","EPOCH":"2022-08-25T18:51:37.160928","ARG_OF_PERICENTER":"56.0755","MEAN_MOTION":"15.08833447","SEMIMAJOR_AXIS":"6917.900","ELEMENT_SET_NO":"999","OBJECT_TYPE":"PAYLOAD","COUNTRY_CODE":"US","TIME_SYSTEM":"UTC","CENTER_NAME":"EARTH","OBJECT_NAME":"STARLINK-3150","MEAN_ELEMENT_THEORY":"SGP4","PERIOD":"95.438","NORAD_CAT_ID":"49452","LAUNCH_DATE":"2021-11-13","PERIAPSIS":"538.591","SITE":"AFETR","APOAPSIS":"540.940","ECCENTRICITY":"0.00016980","DECAY_DATE":null,"MEAN_MOTION_DDOT":"0.0000000000000","RCS_SIZE":"LARGE","MEAN_MOTION_DOT":"-0.00001203","BSTAR":"-0.00005752900000","EPHEMERIS_TYPE":"0","MEAN_ANOMALY":"304.0399","OBJECT_ID":"2021-104AW","CLASSIFICATION_TYPE":"U"},{"MEAN_ELEMENT_THEORY":"SGP4","OBJECT_NAME":"STARLINK-3129","NORAD_CAT_ID":"49453","PERIOD":"95.438","PERIAPSIS":"538.590","SITE":"AFETR","LAUNCH_DATE":"2021-11-13","ECCENTRICITY":"0.00016980","APOAPSIS":"540.939","DECAY_DATE":null,"RCS_SIZE":"LARGE","MEAN_MOTION_DDOT":"0.0000000000000","EPHEMERIS_TYPE":"0","BSTAR":"-0.00005788900000","MEAN_MOTION_DOT":"-0.00001209","MEAN_ANOMALY":"303.9741","OBJECT_ID":"2021-104AX","CLASSIFICATION_TYPE":"U","TLE_LINE2":"2 49453  53.2165 258.6797 0001698  56.1412 303.9741 15.08833765 43747","REV_AT_EPOCH":"4374","INCLINATION":"53.2165","RA_OF_ASC_NODE":"258.6797","TLE_LINE1":"1 49453U 21104AX  22237.79224713 -.00001209  00000-0 -57889-4 0  9999","REF_FRAME":"TEME","GP_ID":"211007937","FILE":"3547674","MEAN_MOTION":"15.08833765","ARG_OF_PERICENTER":"56.1412","EPOCH":"2022-08-25T19:00:50.152032","SEMIMAJOR_AXIS":"6917.899","OBJECT_TYPE":"PAYLOAD","COUNTRY_CODE":"US","ELEMENT_SET_NO":"999","CENTER_NAME":"EARTH","TIME_SYSTEM":"UTC"},{"MEAN_ANOMALY":"287.6823","OBJECT_ID":"2021-104AY","CLASSIFICATION_TYPE":"U","RCS_SIZE":"LARGE","MEAN_MOTION_DDOT":"0.0000000000000","EPHEMERIS_TYPE":"0","MEAN_MOTION_DOT":"0.00000637","BSTAR":"0.00005815300000","SITE":"AFETR","PERIAPSIS":"538.678","LAUNCH_DATE":"2021-11-13","APOAPSIS":"540.859","ECCENTRICITY":"0.00015760","DECAY_DATE":null,"MEAN_ELEMENT_THEORY":"SGP4","OBJECT_NAME":"STARLINK-3160","NORAD_CAT_ID":"49454","PERIOD":"95.438","OBJECT_TYPE":"PAYLOAD","COUNTRY_CODE":"US","ELEMENT_SET_NO":"999","CENTER_NAME":"EARTH","TIME_SYSTEM":"UTC","MEAN_MOTION":"15.08832412","ARG_OF_PERICENTER":"72.4341","EPOCH":"2022-08-25T19:06:08.118720","SEMIMAJOR_AXIS":"6917.904","RA_OF_ASC_NODE":"258.6702","INCLINATION":"53.2152","TLE_LINE1":"1 49454U 21104AY  22237.79592730  .00000637  00000-0  58153-4 0  9994","REF_FRAME":"TEME","GP_ID":"211008683","FILE":"3547674","TLE_LINE2":"2 49454  53.2152 258.6702 0001576  72.4341 287.6823 15.08832412 43744","REV_AT_EPOCH":"4374"}];
